IRIDIUM 7 [-]           
1 24793U 97020B   24067.57390283  .00000665  00000+0  22633-3 0  9994
2 24793  86.4010  12.3618 0002009  91.6526 268.4901 14.35106207405173
IRIDIUM 5 [-]           
1 24795U 97020D   24068.15077135  .00004727  00000+0  46084-3 0  9998
2 24795  86.3906 297.1093 0124788   2.1371 358.0359 14.86474487416081
IRIDIUM 4 [-]           
1 24796U 97020E   24067.57627316  .00000761  00000+0  25542-3 0  9996
2 24796  86.4009   9.5508 0002064  84.5276 275.6156 14.36021953405519
IRIDIUM 914 [-]         
1 24836U 97030A   24068.36485297  .00000849  00000+0  26421-3 0  9994
2 24836  86.3975  19.1819 0001759  32.4697 327.6610 14.39861892402175
IRIDIUM 16 [-]          
1 24841U 97030F   24067.98411937  .00000823  00000+0  26726-3 0  9997
2 24841  86.4032  41.0538 0003571 120.6012 239.5539 14.37744864400258
IRIDIUM 911 [-]         
1 24842U 97030G   24068.44450293  .00001067  00000+0  29179-3 0  9994
2 24842  86.4461  40.0723 0013221 201.6289 158.4357 14.46339458407713
IRIDIUM 17 [-]          
1 24870U 97034B   24068.09816598  .00000745  00000+0  24562-3 0  9997
2 24870  86.3904  70.6462 0003884  93.8756 266.2885 14.36833793396630
IRIDIUM 920 [-]         
1 24871U 97034C   24068.43724453  .00000760  00000+0  23237-3 0  9999
2 24871  86.3952  50.8042 0011784 167.1733 192.9769 14.40560566399769
